ORBCOMM FM103 [+]       
1 40091U 14040F   23309.95103413  .00002182  00000+0  52810-3 0  9997
2 40091  47.0062 275.5865 0001088  90.1433 269.9576 14.56037952478173
ORBCOMM FM114 [+]       
1 41179U 15081A   23310.05482616  .00002409  00000+0  57891-3 0  9995
2 41179  47.0022 184.4470 0001530 169.0829 191.0089 14.56058341418559
ORBCOMM FM119 [-]       
1 41180U 15081B   23310.50265704  .00002189  00000+0  52976-3 0  9998
2 41180  47.0004  91.5290 0002102 240.4473 119.6203 14.56033291419871
ORBCOMM FM105 [-]       
1 41181U 15081C   23310.37677910  .00001059  00000+0  35208-3 0  9994
2 41181  47.0026  42.2017 0002413 218.4461 141.6247 14.44089764415617
ORBCOMM FM110 [+]       
1 41182U 15081D   23310.37487336  .00003098  00000+0  73388-3 0  9992
2 41182  47.0007 182.3636 0001853 342.2072  17.8747 14.56045331418472
ORBCOMM FM118 [+]       
1 41183U 15081E   23310.35205062  .00002214  00000+0  53511-3 0  9990
2 41183  47.0030 182.7390 0002135 345.1693  14.9129 14.56071384418575
ORBCOMM FM112 [+]       
1 41184U 15081F   23310.48061438  .00003131  00000+0  74157-3 0  9990
2 41184  46.9975  90.8857 0002178 223.5231 136.5482 14.56036211419814
ORBCOMM FM113 [+]       
1 41185U 15081G   23310.52536590  .00003143  00000+0  74451-3 0  9992
2 41185  46.9989  90.8992 0001817 242.0109 118.0592 14.56019511419809
