<?xml version="1.0" encoding="UTF-8"?>
<ndm xmlns:xsi="http://www.w3.org/2001/XMLSchema-instance" xsi:noNamespaceSchemaLocation="https://sanaregistry.org/r/ndmxml_unqualified/ndmxml-2.0.0-master-2.0.xsd">
<omm id="CCSDS_OMM_VERS" version="2.0">
<header><CREATION_DATE/><ORIGINATOR/></header><body><segment><metadata><OBJECT_NAME>ORBCOMM FM103 [+]</OBJECT_NAME><OBJECT_ID>2014-040F</OBJECT_ID><CENTER_NAME>EARTH</CENTER_NAME><REF_FRAME>TEME</REF_FRAME><TIME_SYSTEM>UTC</TIME_SYSTEM><MEAN_ELEMENT_THEORY>SGP4</MEAN_ELEMENT_THEORY></metadata><data><meanElements><EPOCH>2023-11-05T22:49:29.348832</EPOCH><MEAN_MOTION>14.56037952</MEAN_MOTION><ECCENTRICITY>.0001088</ECCENTRICITY><INCLINATION>47.0062</INCLINATION><RA_OF_ASC_NODE>275.5865</RA_OF_ASC_NODE><ARG_OF_PERICENTER>90.1433</ARG_OF_PERICENTER><MEAN_ANOMALY>269.9576</MEAN_ANOMALY></meanElements><tleParameters><EPHEMERIS_TYPE>0</EPHEMERIS_TYPE><CLASSIFICATION_TYPE>U</CLASSIFICATION_TYPE><NORAD_CAT_ID>40091</NORAD_CAT_ID><ELEMENT_SET_NO>999</ELEMENT_SET_NO><REV_AT_EPOCH>47817</REV_AT_EPOCH><BSTAR>.5281E-3</BSTAR><MEAN_MOTION_DOT>.2182E-4</MEAN_MOTION_DOT><MEAN_MOTION_DDOT>0</MEAN_MOTION_DDOT></tleParameters></data></segment></body></omm>
<omm id="CCSDS_OMM_VERS" version="2.0">
<header><CREATION_DATE/><ORIGINATOR/></header><body><segment><metadata><OBJECT_NAME>ORBCOMM FM114 [+]</OBJECT_NAME><OBJECT_ID>2015-081A</OBJECT_ID><CENTER_NAME>EARTH</CENTER_NAME><REF_FRAME>TEME</REF_FRAME><TIME_SYSTEM>UTC</TIME_SYSTEM><MEAN_ELEMENT_THEORY>SGP4</MEAN_ELEMENT_THEORY></metadata><data><meanElements><EPOCH>2023-11-06T01:18:56.980224</EPOCH><MEAN_MOTION>14.56058341</MEAN_MOTION><ECCENTRICITY>.000153</ECCENTRICITY><INCLINATION>47.0022</INCLINATION><RA_OF_ASC_NODE>184.4470</RA_OF_ASC_NODE><ARG_OF_PERICENTER>169.0829</ARG_OF_PERICENTER><MEAN_ANOMALY>191.0089</MEAN_ANOMALY></meanElements><tleParameters><EPHEMERIS_TYPE>0</EPHEMERIS_TYPE><CLASSIFICATION_TYPE>U</CLASSIFICATION_TYPE><NORAD_CAT_ID>41179</NORAD_CAT_ID><ELEMENT_SET_NO>999</ELEMENT_SET_NO><REV_AT_EPOCH>41855</REV_AT_EPOCH><BSTAR>.57891E-3</BSTAR><MEAN_MOTION_DOT>.2409E-4</MEAN_MOTION_DOT><MEAN_MOTION_DDOT>0</MEAN_MOTION_DDOT></tleParameters></data></segment></body></omm>
<omm id="CCSDS_OMM_VERS" version="2.0">
<header><CREATION_DATE/><ORIGINATOR/></header><body><segment><metadata><OBJECT_NAME>ORBCOMM FM119 [-]</OBJECT_NAME><OBJECT_ID>2015-081B</OBJECT_ID><CENTER_NAME>EARTH</CENTER_NAME><REF_FRAME>TEME</REF_FRAME><TIME_SYSTEM>UTC</TIME_SYSTEM><MEAN_ELEMENT_THEORY>SGP4</MEAN_ELEMENT_THEORY></metadata><data><meanElements><EPOCH>2023-11-06T12:03:49.568256</EPOCH><MEAN_MOTION>14.56033291</MEAN_MOTION><ECCENTRICITY>.0002102</ECCENTRICITY><INCLINATION>47.0004</INCLINATION><RA_OF_ASC_NODE>91.5290</RA_OF_ASC_NODE><ARG_OF_PERICENTER>240.4473</ARG_OF_PERICENTER><MEAN_ANOMALY>119.6203</MEAN_ANOMALY></meanElements><tleParameters><EPHEMERIS_TYPE>0</EPHEMERIS_TYPE><CLASSIFICATION_TYPE>U</CLASSIFICATION_TYPE><NORAD_CAT_ID>41180</NORAD_CAT_ID><ELEMENT_SET_NO>999</ELEMENT_SET_NO><REV_AT_EPOCH>41987</REV_AT_EPOCH><BSTAR>.52976E-3</BSTAR><MEAN_MOTION_DOT>.2189E-4</MEAN_MOTION_DOT><MEAN_MOTION_DDOT>0</MEAN_MOTION_DDOT></tleParameters></data></segment></body></omm>
<omm id="CCSDS_OMM_VERS" version="2.0">
<header><CREATION_DATE/><ORIGINATOR/></header><body><segment><metadata><OBJECT_NAME>ORBCOMM FM105 [-]</OBJECT_NAME><OBJECT_ID>2015-081C</OBJECT_ID><CENTER_NAME>EARTH</CENTER_NAME><REF_FRAME>TEME</REF_FRAME><TIME_SYSTEM>UTC</TIME_SYSTEM><MEAN_ELEMENT_THEORY>SGP4</MEAN_ELEMENT_THEORY></metadata><data><meanElements><EPOCH>2023-11-06T09:02:33.714240</EPOCH><MEAN_MOTION>14.44089764</MEAN_MOTION><ECCENTRICITY>.0002413</ECCENTRICITY><INCLINATION>47.0026</INCLINATION><RA_OF_ASC_NODE>42.2017</RA_OF_ASC_NODE><ARG_OF_PERICENTER>218.4461</ARG_OF_PERICENTER><MEAN_ANOMALY>141.6247</MEAN_ANOMALY></meanElements><tleParameters><EPHEMERIS_TYPE>0</EPHEMERIS_TYPE><CLASSIFICATION_TYPE>U</CLASSIFICATION_TYPE><NORAD_CAT_ID>41181</NORAD_CAT_ID><ELEMENT_SET_NO>999</ELEMENT_SET_NO><REV_AT_EPOCH>41561</REV_AT_EPOCH><BSTAR>.35208E-3</BSTAR><MEAN_MOTION_DOT>.1059E-4</MEAN_MOTION_DOT><MEAN_MOTION_DDOT>0</MEAN_MOTION_DDOT></tleParameters></data></segment></body></omm>
<omm id="CCSDS_OMM_VERS" version="2.0">
<header><CREATION_DATE/><ORIGINATOR/></header><body><segment><metadata><OBJECT_NAME>ORBCOMM FM110 [+]</OBJECT_NAME><OBJECT_ID>2015-081D</OBJECT_ID><CENTER_NAME>EARTH</CENTER_NAME><REF_FRAME>TEME</REF_FRAME><TIME_SYSTEM>UTC</TIME_SYSTEM><MEAN_ELEMENT_THEORY>SGP4</MEAN_ELEMENT_THEORY></metadata><data><meanElements><EPOCH>2023-11-06T08:59:49.058304</EPOCH><MEAN_MOTION>14.56045331</MEAN_MOTION><ECCENTRICITY>.0001853</ECCENTRICITY><INCLINATION>47.0007</INCLINATION><RA_OF_ASC_NODE>182.3636</RA_OF_ASC_NODE><ARG_OF_PERICENTER>342.2072</ARG_OF_PERICENTER><MEAN_ANOMALY>17.8747</MEAN_ANOMALY></meanElements><tleParameters><EPHEMERIS_TYPE>0</EPHEMERIS_TYPE><CLASSIFICATION_TYPE>U</CLASSIFICATION_TYPE><NORAD_CAT_ID>41182</NORAD_CAT_ID><ELEMENT_SET_NO>999</ELEMENT_SET_NO><REV_AT_EPOCH>41847</REV_AT_EPOCH><BSTAR>.73388E-3</BSTAR><MEAN_MOTION_DOT>.3098E-4</MEAN_MOTION_DOT><MEAN_MOTION_DDOT>0</MEAN_MOTION_DDOT></tleParameters></data></segment></body></omm>
<omm id="CCSDS_OMM_VERS" version="2.0">
<header><CREATION_DATE/><ORIGINATOR/></header><body><segment><metadata><OBJECT_NAME>ORBCOMM FM118 [+]</OBJECT_NAME><OBJECT_ID>2015-081E</OBJECT_ID><CENTER_NAME>EARTH</CENTER_NAME><REF_FRAME>TEME</REF_FRAME><TIME_SYSTEM>UTC</TIME_SYSTEM><MEAN_ELEMENT_THEORY>SGP4</MEAN_ELEMENT_THEORY></metadata><data><meanElements><EPOCH>2023-11-06T08:26:57.173568</EPOCH><MEAN_MOTION>14.56071384</MEAN_MOTION><ECCENTRICITY>.0002135</ECCENTRICITY><INCLINATION>47.0030</INCLINATION><RA_OF_ASC_NODE>182.7390</RA_OF_ASC_NODE><ARG_OF_PERICENTER>345.1693</ARG_OF_PERICENTER><MEAN_ANOMALY>14.9129</MEAN_ANOMALY></meanElements><tleParameters><EPHEMERIS_TYPE>0</EPHEMERIS_TYPE><CLASSIFICATION_TYPE>U</CLASSIFICATION_TYPE><NORAD_CAT_ID>41183</NORAD_CAT_ID><ELEMENT_SET_NO>999</ELEMENT_SET_NO><REV_AT_EPOCH>41857</REV_AT_EPOCH><BSTAR>.53511E-3</BSTAR><MEAN_MOTION_DOT>.2214E-4</MEAN_MOTION_DOT><MEAN_MOTION_DDOT>0</MEAN_MOTION_DDOT></tleParameters></data></segment></body></omm>
<omm id="CCSDS_OMM_VERS" version="2.0">
<header><CREATION_DATE/><ORIGINATOR/></header><body><segment><metadata><OBJECT_NAME>ORBCOMM FM112 [+]</OBJECT_NAME><OBJECT_ID>2015-081F</OBJECT_ID><CENTER_NAME>EARTH</CENTER_NAME><REF_FRAME>TEME</REF_FRAME><TIME_SYSTEM>UTC</TIME_SYSTEM><MEAN_ELEMENT_THEORY>SGP4</MEAN_ELEMENT_THEORY></metadata><data><meanElements><EPOCH>2023-11-06T11:32:05.082432</EPOCH><MEAN_MOTION>14.56036211</MEAN_MOTION><ECCENTRICITY>.0002178</ECCENTRICITY><INCLINATION>46.9975</INCLINATION><RA_OF_ASC_NODE>90.8857</RA_OF_ASC_NODE><ARG_OF_PERICENTER>223.5231</ARG_OF_PERICENTER><MEAN_ANOMALY>136.5482</MEAN_ANOMALY></meanElements><tleParameters><EPHEMERIS_TYPE>0</EPHEMERIS_TYPE><CLASSIFICATION_TYPE>U</CLASSIFICATION_TYPE><NORAD_CAT_ID>41184</NORAD_CAT_ID><ELEMENT_SET_NO>999</ELEMENT_SET_NO><REV_AT_EPOCH>41981</REV_AT_EPOCH><BSTAR>.74157E-3</BSTAR><MEAN_MOTION_DOT>.3131E-4</MEAN_MOTION_DOT><MEAN_MOTION_DDOT>0</MEAN_MOTION_DDOT></tleParameters></data></segment></body></omm>
<omm id="CCSDS_OMM_VERS" version="2.0">
<header><CREATION_DATE/><ORIGINATOR/></header><body><segment><metadata><OBJECT_NAME>ORBCOMM FM113 [+]</OBJECT_NAME><OBJECT_ID>2015-081G</OBJECT_ID><CENTER_NAME>EARTH</CENTER_NAME><REF_FRAME>TEME</REF_FRAME><TIME_SYSTEM>UTC</TIME_SYSTEM><MEAN_ELEMENT_THEORY>SGP4</MEAN_ELEMENT_THEORY></metadata><data><meanElements><EPOCH>2023-11-06T12:36:31.613760</EPOCH><MEAN_MOTION>14.56019511</MEAN_MOTION><ECCENTRICITY>.0001817</ECCENTRICITY><INCLINATION>46.9989</INCLINATION><RA_OF_ASC_NODE>90.8992</RA_OF_ASC_NODE><ARG_OF_PERICENTER>242.0109</ARG_OF_PERICENTER><MEAN_ANOMALY>118.0592</MEAN_ANOMALY></meanElements><tleParameters><EPHEMERIS_TYPE>0</EPHEMERIS_TYPE><CLASSIFICATION_TYPE>U</CLASSIFICATION_TYPE><NORAD_CAT_ID>41185</NORAD_CAT_ID><ELEMENT_SET_NO>999</ELEMENT_SET_NO><REV_AT_EPOCH>41980</REV_AT_EPOCH><BSTAR>.74451E-3</BSTAR><MEAN_MOTION_DOT>.3143E-4</MEAN_MOTION_DOT><MEAN_MOTION_DDOT>0</MEAN_MOTION_DDOT></tleParameters></data></segment></body></omm>

</ndm>
